[{"OBJECT_NAME":"STARLINK-2032","OBJECT_ID":"2021-012AF","EPOCH":"2026-03-09T01:15:59.035968","MEAN_MOTION":15.65431979,"ECCENTRICITY":0.00102565,"INCLINATION":53.0435,"RA_OF_ASC_NODE":17.0799,"ARG_OF_PERICENTER":79.1502,"MEAN_ANOMALY":281.0667,"EPHEMERIS_TYPE":0,"CLASSIFICATION_TYPE":"U","NORAD_CAT_ID":47649,"ELEMENT_SET_NO":999,"REV_AT_EPOCH":28070,"BSTAR":0.00099601867,"MEAN_MOTION_DOT":0.00102351,"MEAN_MOTION_DDOT":0},{"OBJECT_NAME":"STARLINK-11200 [DTC]","OBJECT_ID":"2024-133K","EPOCH":"2026-03-09T09:45:42.973632","MEAN_MOTION":15.69709557,"ECCENTRICITY":9.908e-5,"INCLINATION":53.1569,"RA_OF_ASC_NODE":147.3233,"ARG_OF_PERICENTER":83.6836,"MEAN_ANOMALY":276.4295,"EPHEMERIS_TYPE":0,"CLASSIFICATION_TYPE":"U","NORAD_CAT_ID":60310,"ELEMENT_SET_NO":999,"REV_AT_EPOCH":9369,"BSTAR":9.6698959e-5,"MEAN_MOTION_DOT":0.00011142,"MEAN_MOTION_DDOT":0}]
