STARLINK-2032           
1 47649U 21012AF  26068.05276662  .00102351  00000+0  99602-3 0  9992
2 47649  53.0435  17.0799 0010256  79.1502 281.0667 15.65431979280700
STARLINK-11200 [DTC]    
1 60310U 24133K   26068.40674738  .00011142  00000+0  96699-4 0  9995
2 60310  53.1569 147.3233 0000990  83.6836 276.4295 15.69709557 93692
